[{"OBJECT_NAME":"STARLINK-5808","OBJECT_ID":"2023-083BD","EPOCH":"2026-03-09T22:00:01.999584","MEAN_MOTION":15.14004269,"ECCENTRICITY":0.00016373,"INCLINATION":42.9994,"RA_OF_ASC_NODE":337.5456,"ARG_OF_PERICENTER":220.5285,"MEAN_ANOMALY":42.6839,"EPHEMERIS_TYPE":0,"CLASSIFICATION_TYPE":"U","NORAD_CAT_ID":56927,"ELEMENT_SET_NO":999,"REV_AT_EPOCH":563,"BSTAR":0.0028761116,"MEAN_MOTION_DOT":0.00053329,"MEAN_MOTION_DDOT":0},{"OBJECT_NAME":"USA 40 R\/B DEB","OBJECT_ID":"1989-061AF","EPOCH":"2026-03-07T22:36:28.042272","MEAN_MOTION":10.55163008,"ECCENTRICITY":0.21609917,"INCLINATION":56.8984,"RA_OF_ASC_NODE":304.4657,"ARG_OF_PERICENTER":296.6933,"MEAN_ANOMALY":42.8931,"EPHEMERIS_TYPE":0,"CLASSIFICATION_TYPE":"U","NORAD_CAT_ID":23359,"ELEMENT_SET_NO":999,"REV_AT_EPOCH":25893,"BSTAR":0.0085604354,"MEAN_MOTION_DOT":0.00017271,"MEAN_MOTION_DDOT":0}]
